{
  "norad_id": 65629,
  "name": "STARLINK-35135",
  "history": [
    {
      "epoch": "2026-04-16T18:43:51.014784Z",
      "apogee_km": 476.0963985328135,
      "perigee_km": 474.42965164671114,
      "latitude_deg": 2.2995311655927335e-05,
      "longitude_deg": 4.215108748549562,
      "height_km": 476.1058293690417,
      "semi_major_axis_km": 6853.4000250897625,
      "eccentricity": 0.0001216,
      "inclination_deg": 53.1583,
      "raan_deg": 130.1009,
      "arg_perigee_deg": 86.2051,
      "mean_anomaly_deg": 273.9089,
      "mean_motion_rev_day": 15.30183939
    },
    {
      "epoch": "2026-04-17T18:14:39.412896Z",
      "apogee_km": 476.16549362463775,
      "perigee_km": 474.29863589139677,
      "latitude_deg": -7.852594180039547e-06,
      "longitude_deg": 5.998965430681288,
      "height_km": 475.9948679648861,
      "semi_major_axis_km": 6853.369064758017,
      "eccentricity": 0.0001362,
      "inclination_deg": 53.1587,
      "raan_deg": 125.5521,
      "arg_perigee_deg": 81.6826,
      "mean_anomaly_deg": 278.4329,
      "mean_motion_rev_day": 15.30194308
    },
    {
      "epoch": "2026-04-18T17:45:26.977248Z",
      "apogee_km": 475.917819751925,
      "perigee_km": 474.44161533096667,
      "latitude_deg": -2.8953187088013025e-05,
      "longitude_deg": 7.784211862359346,
      "height_km": 475.9552514446522,
      "semi_major_axis_km": 6853.3167175414455,
      "eccentricity": 0.0001077,
      "inclination_deg": 53.1572,
      "raan_deg": 121.0012,
      "arg_perigee_deg": 80.444,
      "mean_anomaly_deg": 279.6682,
      "mean_motion_rev_day": 15.3021184
    },
    {
      "epoch": "2026-04-19T11:00:01.325952Z",
      "apogee_km": 475.8537920171266,
      "perigee_km": 474.41912775103356,
      "latitude_deg": 6.509087326116838e-05,
      "longitude_deg": 105.09702205710873,
      "height_km": 475.9730172992861,
      "semi_major_axis_km": 6853.27345988408,
      "eccentricity": 0.00010467,
      "inclination_deg": 53.1582,
      "raan_deg": 117.6652,
      "arg_perigee_deg": 85.071,
      "mean_anomaly_deg": 275.0411,
      "mean_motion_rev_day": 15.30226328
    },
    {
      "epoch": "2026-04-20T10:30:48.700224Z",
      "apogee_km": 476.09592827723736,
      "perigee_km": 474.2962430089474,
      "latitude_deg": 3.706600571264127e-05,
      "longitude_deg": 106.88215557989325,
      "height_km": 475.9288822033138,
      "semi_major_axis_km": 6853.333085643092,
      "eccentricity": 0.0001313,
      "inclination_deg": 53.1559,
      "raan_deg": 113.1134,
      "arg_perigee_deg": 79.4465,
      "mean_anomaly_deg": 280.6684,
      "mean_motion_rev_day": 15.30206358
    },
    {
      "epoch": "2026-04-21T06:53:30.317280Z",
      "apogee_km": 476.11794106340403,
      "perigee_km": 474.2757649237192,
      "latitude_deg": 5.471100229525646e-05,
      "longitude_deg": 156.42475828922272,
      "height_km": 475.93494260443356,
      "semi_major_axis_km": 6853.333852993561,
      "eccentricity": 0.0001344,
      "inclination_deg": 53.1567,
      "raan_deg": 109.1663,
      "arg_perigee_deg": 80.0247,
      "mean_anomaly_deg": 280.0906,
      "mean_motion_rev_day": 15.30206101
    },
    {
      "epoch": "2026-04-22T06:24:18.267840Z",
      "apogee_km": 476.0229290312345,
      "perigee_km": 474.4470646742775,
      "latitude_deg": 9.534846617482698e-06,
      "longitude_deg": 158.21087038920174,
      "height_km": 475.9800939514907,
      "semi_major_axis_km": 6853.371996852756,
      "eccentricity": 0.00011497,
      "inclination_deg": 53.157,
      "raan_deg": 104.6179,
      "arg_perigee_deg": 78.8145,
      "mean_anomaly_deg": 281.2985,
      "mean_motion_rev_day": 15.30193326
    },
    {
      "epoch": "2026-04-23T10:37:15.866400Z",
      "apogee_km": 476.1712126022767,
      "perigee_km": 474.2036231619031,
      "latitude_deg": -2.3704246705943043e-06,
      "longitude_deg": 88.35097502303806,
      "height_km": 475.2386073424359,
      "semi_major_axis_km": 6853.32441788209,
      "eccentricity": 0.00014355,
      "inclination_deg": 53.1587,
      "raan_deg": 99.1568,
      "arg_perigee_deg": 30.5205,
      "mean_anomaly_deg": 329.5879,
      "mean_motion_rev_day": 15.30209261
    },
    {
      "epoch": "2026-04-24T08:34:00.554304Z",
      "apogee_km": 476.0747337283028,
      "perigee_km": 474.31205715059514,
      "latitude_deg": -3.3175471955172485e-06,
      "longitude_deg": 114.01759361619267,
      "height_km": 476.0744855832663,
      "semi_major_axis_km": 6853.330395439449,
      "eccentricity": 0.0001286,
      "inclination_deg": 53.1588,
      "raan_deg": 94.9109,
      "arg_perigee_deg": 88.9053,
      "mean_anomaly_deg": 271.2095,
      "mean_motion_rev_day": 15.30207259
    },
    {
      "epoch": "2026-04-25T09:38:51.497088Z",
      "apogee_km": 476.1366585380574,
      "perigee_km": 474.1875802684999,
      "latitude_deg": -4.1147898400871055e-05,
      "longitude_deg": 91.91907065537693,
      "height_km": 476.1040800285019,
      "semi_major_axis_km": 6853.299119403278,
      "eccentricity": 0.0001422,
      "inclination_deg": 53.1592,
      "raan_deg": 90.0547,
      "arg_perigee_deg": 92.5976,
      "mean_anomaly_deg": 267.5187,
      "mean_motion_rev_day": 15.30217734
    },
    {
      "epoch": "2026-04-26T15:25:52.500000Z",
      "apogee_km": 476.1885264763923,
      "perigee_km": 474.16337249981825,
      "latitude_deg": -2.2227244820163714e-06,
      "longitude_deg": -1.8220482984124846,
      "height_km": 476.18516302603314,
      "semi_major_axis_km": 6853.312949488105,
      "eccentricity": 0.00014775,
      "inclination_deg": 53.1594,
      "raan_deg": 84.2909,
      "arg_perigee_deg": 96.3205,
      "mean_anomaly_deg": 263.7964,
      "mean_motion_rev_day": 15.30213102
    },
    {
      "epoch": "2026-04-27T14:56:40.403040Z",
      "apogee_km": 476.03833650827255,
      "perigee_km": 474.33460029402886,
      "latitude_deg": 1.7887284003686172e-05,
      "longitude_deg": -0.039085786349263824,
      "height_km": 476.29572942793783,
      "semi_major_axis_km": 6853.32346840115,
      "eccentricity": 0.0001243,
      "inclination_deg": 53.1602,
      "raan_deg": 79.7391,
      "arg_perigee_deg": 104.3463,
      "mean_anomaly_deg": 255.7676,
      "mean_motion_rev_day": 15.30209579
    },
    {
      "epoch": "2026-04-28T20:43:41.513952Z",
      "apogee_km": 476.68208603801577,
      "perigee_km": 473.7269251807975,
      "latitude_deg": -4.9269035973375183e-05,
      "longitude_deg": -93.78003440722495,
      "height_km": 476.04700730700023,
      "semi_major_axis_km": 6853.341505609406,
      "eccentricity": 0.0002156,
      "inclination_deg": 53.161,
      "raan_deg": 73.976,
      "arg_perigee_deg": 87.8891,
      "mean_anomaly_deg": 272.2356,
      "mean_motion_rev_day": 15.30203538
    },
    {
      "epoch": "2026-04-29T13:58:16.432896Z",
      "apogee_km": 476.2213337907324,
      "perigee_km": 474.166705151094,
      "latitude_deg": -3.0365977135728716e-06,
      "longitude_deg": 3.5260584776267665,
      "height_km": 476.22841138305165,
      "semi_major_axis_km": 6853.331019470913,
      "eccentricity": 0.0001499,
      "inclination_deg": 53.162,
      "raan_deg": 70.6357,
      "arg_perigee_deg": 97.6299,
      "mean_anomaly_deg": 262.4872,
      "mean_motion_rev_day": 15.3020705
    },
    {
      "epoch": "2026-04-30T05:38:48.306048Z",
      "apogee_km": 476.156639158251,
      "perigee_km": 474.19385053132737,
      "latitude_deg": -2.6117844610133437e-05,
      "longitude_deg": 124.71916573393342,
      "height_km": 475.8728444983092,
      "semi_major_axis_km": 6853.312244844789,
      "eccentricity": 0.0001432,
      "inclination_deg": 53.1611,
      "raan_deg": 67.6054,
      "arg_perigee_deg": 78.2159,
      "mean_anomaly_deg": 281.9002,
      "mean_motion_rev_day": 15.30213338
    },
    {
      "epoch": "2026-05-02T04:40:23.854656Z",
      "apogee_km": 475.8908215517158,
      "perigee_km": 474.4694435784222,
      "latitude_deg": -9.093497293806202e-06,
      "longitude_deg": 128.28834565699793,
      "height_km": 476.39621451380583,
      "semi_major_axis_km": 6853.317132565069,
      "eccentricity": 0.0001037,
      "inclination_deg": 53.1598,
      "raan_deg": 58.504,
      "arg_perigee_deg": 116.5414,
      "mean_anomaly_deg": 243.5693,
      "mean_motion_rev_day": 15.30211701
    },
    {
      "epoch": "2026-05-03T19:51:43.884000Z",
      "apogee_km": 476.0342816213988,
      "perigee_km": 474.2866907624193,
      "latitude_deg": -6.404060171210906e-05,
      "longitude_deg": -108.73908598029126,
      "height_km": 476.0443181202576,
      "semi_major_axis_km": 6853.297486191908,
      "eccentricity": 0.0001275,
      "inclination_deg": 53.1589,
      "raan_deg": 50.9195,
      "arg_perigee_deg": 89.0731,
      "mean_anomaly_deg": 271.0415,
      "mean_motion_rev_day": 15.30218281
    },
    {
      "epoch": "2026-05-04T19:22:31.920096Z",
      "apogee_km": 476.0739856666369,
      "perigee_km": 474.31816173315565,
      "latitude_deg": 4.3174512451236695e-05,
      "longitude_deg": -106.95321860162299,
      "height_km": 476.1199033382099,
      "semi_major_axis_km": 6853.333073699896,
      "eccentricity": 0.0001281,
      "inclination_deg": 53.1604,
      "raan_deg": 46.3711,
      "arg_perigee_deg": 91.6795,
      "mean_anomaly_deg": 268.4353,
      "mean_motion_rev_day": 15.30206362
    },
    {
      "epoch": "2026-05-05T06:20:41.077248Z",
      "apogee_km": 474.39311218345574,
      "perigee_km": 471.7444360311856,
      "latitude_deg": 2.2201756206819558e-05,
      "longitude_deg": 85.9316198054561,
      "height_km": 473.3368226954615,
      "semi_major_axis_km": 6851.20577410732,
      "eccentricity": 0.0001933,
      "inclination_deg": 53.1589,
      "raan_deg": 44.2446,
      "arg_perigee_deg": 61.6144,
      "mean_anomaly_deg": 298.5052,
      "mean_motion_rev_day": 15.30919111
    }
  ]
}